NORAD_CAT_ID,OBJECT_NAME,OBJECT_TYPE,EPOCH,MEAN_MOTION,ECCENTRICITY,INCLINATION,RA_OF_ASC_NODE,ARG_OF_PERICENTER,MEAN_ANOMALY,BSTAR,MEAN_MOTION_DOT,MEAN_MOTION_DDOT,TLE_LINE0,TLE_LINE1,TLE_LINE2,SEMIMAJOR_AXIS,PERIOD,APOGEE,PERIGEE,DECAYED
52647.0,STARLINK-3846,PAYLOAD,2024-06-09 11:50:34,15.0882898,0.0001612,53.216,244.2,85.3934,274.7243,-0.00014026,-2.519e-05,0.0,0 STARLINK-3846,1 52647U 22052BB  24161.49345590 -.00002519  00000-0 -14026-3 0  9993,2 52647  53.2160 244.2000 0001612  85.3934 274.7243 15.08828980115169,6917.914,95.438,540.894,538.664,0.0
52647.0,STARLINK-3846,PAYLOAD,2024-06-09 22:58:16,15.08840711,0.0001873,53.2183,242.1188,87.2158,272.9048,0.00012601,1.718e-05,0.0,0 STARLINK-3846,1 52647U 22052BB  24161.95713484  .00001718  00000-0  12601-3 0  9990,2 52647  53.2183 242.1188 0001873  87.2158 272.9048 15.08840711114861,6917.878,95.438,541.039,538.447,0.0
52647.0,STARLINK-3846,PAYLOAD,2024-06-10 11:41:21,15.08842604,0.0001583,53.2165,239.7409,87.881,272.2363,0.00030453,4.562e-05,0.0,0 STARLINK-3846,1 52647U 22052BB  24162.48705587  .00004562  00000-0  30453-3 0  9999,2 52647  53.2165 239.7409 0001583  87.8810 272.2363 15.08842604114943,6917.872,95.437,540.833,538.642,0.0
52647.0,STARLINK-3846,PAYLOAD,2024-06-11 05:10:36,15.08846328,0.0001643,53.2163,236.4702,84.9029,275.215,0.00039507,6.006e-05,0.0,0 STARLINK-3846,1 52647U 22052BB  24163.21569690  .00006006  00000-0  39507-3 0  9998,2 52647  53.2163 236.4702 0001643  84.9029 275.2150 15.08846328115426,6917.861,95.437,540.863,538.589,0.0
52647.0,STARLINK-3846,PAYLOAD,2024-06-11 11:32:08,15.08844729,0.0001601,53.2161,235.2807,84.4998,275.6177,0.00029061,4.341e-05,0.0,0 STARLINK-3846,1 52647U 22052BB  24163.48065702  .00004341  00000-0  29061-3 0  9996,2 52647  53.2161 235.2807 0001601  84.4998 275.6177 15.08844729115090,6917.866,95.437,540.838,538.623,0.0
52647.0,STARLINK-3846,PAYLOAD,2024-06-12 11:22:56,15.0883058,0.0001469,53.216,230.8192,85.9596,274.1564,0.00013103,1.797e-05,0.0,0 STARLINK-3846,1 52647U 22052BB  24164.47426447  .00001797  00000-0  13103-3 0  9995,2 52647  53.2160 230.8192 0001469  85.9596 274.1564 15.08830580115611,6917.909,95.438,540.79,538.758,0.0
52647.0,STARLINK-3846,PAYLOAD,2024-06-13 11:13:42,15.08843747,0.000135,53.2167,226.3597,83.9993,276.1153,0.00013237,1.82e-05,0.0,0 STARLINK-3846,1 52647U 22052BB  24165.46785692  .00001820  00000-0  13237-3 0  9990,2 52647  53.2167 226.3597 0001350  83.9993 276.1153 15.08843747115766,6917.869,95.437,540.668,538.8,0.0
52647.0,STARLINK-3846,PAYLOAD,2024-06-14 12:39:54,15.08820623,0.0001642,53.2186,221.6068,101.302,258.8156,0.00025034,3.696e-05,0.0,0 STARLINK-3846,1 52647U 22052BB  24166.52770928  .00003696  00000-0  25034-3 0  9995,2 52647  53.2186 221.6068 0001642 101.3020 258.8156 15.08820623115553,6917.94,95.439,540.941,538.669,0.0
52647.0,STARLINK-3846,PAYLOAD,2024-06-14 20:36:49,15.08837645,0.0001558,53.2183,220.1194,93.5763,266.5407,0.00013188,1.811e-05,0.0,0 STARLINK-3846,1 52647U 22052BB  24166.85890189  .00001811  00000-0  13188-3 0  9997,2 52647  53.2183 220.1194 0001558  93.5763 266.5407 15.08837645115609,6917.888,95.438,540.83,538.675,0.0
52647.0,STARLINK-3846,PAYLOAD,2024-06-15 12:30:40,15.08838375,0.0001745,53.219,217.1445,76.3255,283.7932,-3.366e-05,-8.24e-06,0.0,0 STARLINK-3846,1 52647U 22052BB  24167.52129807 -.00000824  00000-0 -33660-4 0  9997,2 52647  53.2190 217.1445 0001745  76.3255 283.7932 15.08838375115701,6917.885,95.438,540.958,538.543,0.0
52647.0,STARLINK-3846,PAYLOAD,2024-06-15 20:27:35,15.08841958,0.0001636,53.2184,215.6591,86.2157,273.9022,-3.1189e-05,-7.84e-06,0.0,0 STARLINK-3846,1 52647U 22052BB  24167.85249441 -.00000784  00000-0 -31189-4 0  9999,2 52647  53.2184 215.6591 0001636  86.2157 273.9022 15.08841958115756,6917.874,95.437,540.871,538.608,0.0
52647.0,STARLINK-3846,PAYLOAD,2024-06-16 10:46:04,15.08832014,0.0001391,53.2157,212.9807,86.1179,273.9972,-3.4814e-05,-8.42e-06,0.0,0 STARLINK-3846,1 52647U 22052BB  24168.44866185 -.00000842  00000-0 -34814-4 0  9998,2 52647  53.2157 212.9807 0001391  86.1179 273.9972 15.08832014115844,6917.905,95.438,540.732,538.808,0.0
52647.0,STARLINK-3846,PAYLOAD,2024-06-16 20:18:23,15.08831838,0.0001426,53.2159,211.1964,83.1291,276.9863,8.3591e-05,1.042e-05,0.0,0 STARLINK-3846,1 52647U 22052BB  24168.84610004  .00001042  00000-0  83591-4 0  9996,2 52647  53.2159 211.1964 0001426  83.1291 276.9863 15.08831838115904,6917.905,95.438,540.757,538.784,0.0
52647.0,STARLINK-3846,PAYLOAD,2024-06-17 20:09:09,15.08832377,0.000142,53.2157,206.7349,87.469,272.6465,8.8254e-05,1.117e-05,0.0,0 STARLINK-3846,1 52647U 22052BB  24169.83969808  .00001117  00000-0  88254-4 0  9999,2 52647  53.2157 206.7349 0001420  87.4690 272.6465 15.08832377116050,6917.904,95.438,540.751,538.786,0.0
52647.0,STARLINK-3846,PAYLOAD,2024-06-18 08:52:15,15.08825389,0.0001351,53.2169,204.3545,86.7478,273.3669,3.709e-05,3.02e-06,0.0,0 STARLINK-3846,1 52647U 22052BB  24170.36962616  .00000302  00000-0  37090-4 0  9996,2 52647  53.2169 204.3545 0001351  86.7478 273.3669 15.08825389116132,6917.925,95.438,540.725,538.855,0.0
52647.0,STARLINK-3846,PAYLOAD,2024-06-19 02:21:29,15.08836091,0.00015,53.2165,201.0828,93.3398,266.7766,8.0332e-05,9.91e-06,0.0,0 STARLINK-3846,1 52647U 22052BB  24171.09826069  .00000991  00000-0  80332-4 0  9999,2 52647  53.2165 201.0828 0001500  93.3398 266.7766 15.08836091116616,6917.892,95.438,540.795,538.72,0.0
52647.0,STARLINK-3846,PAYLOAD,2024-06-19 08:43:02,15.08833214,0.0001403,53.2172,199.8943,90.7162,269.3991,6.7698e-05,7.89e-06,0.0,0 STARLINK-3846,1 52647U 22052BB  24171.36322344  .00000789  00000-0  67698-4 0  9991,2 52647  53.2172 199.8943 0001403  90.7162 269.3991 15.08833214116284,6917.901,95.438,540.737,538.796,0.0
52647.0,STARLINK-3846,PAYLOAD,2024-06-20 08:33:49,15.08840362,0.0001765,53.2168,195.4342,88.811,271.3085,-1.9056e-05,-5.91e-06,0.0,0 STARLINK-3846,1 52647U 22052BB  24172.35682492 -.00000591  00000-0 -19056-4 0  9992,2 52647  53.2168 195.4342 0001765  88.8110 271.3085 15.08840362116432,6917.879,95.438,540.965,538.523,0.0
52647.0,STARLINK-3846,PAYLOAD,2024-06-20 18:06:08,15.08837481,0.0001414,53.2168,193.6501,87.9991,272.1163,2.2905e-05,7.7e-07,0.0,0 STARLINK-3846,1 52647U 22052BB  24172.75426543  .00000077  00000-0  22905-4 0  9993,2 52647  53.2168 193.6501 0001414  87.9991 272.1163 15.08837481116868,6917.888,95.438,540.731,538.775,0.0
52647.0,STARLINK-3846,PAYLOAD,2024-06-21 06:49:13,15.08835155,0.000137,53.2167,191.2718,89.1654,270.9495,4.5867e-05,4.42e-06,0.0,0 STARLINK-3846,1 52647U 22052BB  24173.28418722  .00000442  00000-0  45867-4 0  9990,2 52647  53.2167 191.2718 0001370  89.1654 270.9495 15.08835155116570,6917.895,95.438,540.708,538.812,0.0
52647.0,STARLINK-3846,PAYLOAD,2024-06-22 09:50:47,15.08835412,0.000136,53.2165,186.2166,88.6231,271.4917,2.3947e-05,9.3e-07,0.0,0 STARLINK-3846,1 52647U 22052BB  24174.41027099  .00000093  00000-0  23947-4 0  9996,2 52647  53.2165 186.2166 0001360  88.6231 271.4917 15.08835412117115,6917.894,95.438,540.7,538.819,0.0
52647.0,STARLINK-3846,PAYLOAD,2024-06-23 09:41:34,15.08839013,0.0001335,53.2162,181.7559,87.1208,272.9937,5.5473e-05,5.95e-06,0.0,0 STARLINK-3846,1 52647U 22052BB  24175.40386948  .00000595  00000-0  55473-4 0  9993,2 52647  53.2162 181.7559 0001335  87.1208 272.9937 15.08839013116891,6917.883,95.438,540.672,538.825,0.0
52647.0,STARLINK-3846,PAYLOAD,2024-06-24 04:46:11,15.08843366,0.000133,53.2163,178.1869,87.9257,272.1888,9.4416e-05,1.215e-05,0.0,0 STARLINK-3846,1 52647U 22052BB  24176.19874442  .00001215  00000-0  94416-4 0  9991,2 52647  53.2163 178.1869 0001330  87.9257 272.1888 15.08843366117381,6917.87,95.437,540.655,538.815,0.0
52647.0,STARLINK-3846,PAYLOAD,2024-06-24 09:32:20,15.088456,0.0001385,53.2164,177.2949,85.4345,274.6806,0.00011119,1.482e-05,0.0,0 STARLINK-3846,1 52647U 22052BB  24176.39746238  .00001482  00000-0  11119-3 0  9998,2 52647  53.2164 177.2949 0001385  85.4345 274.6806 15.08845600117045,6917.863,95.437,540.686,538.77,0.0
52647.0,STARLINK-3846,PAYLOAD,2024-06-25 06:12:21,15.08841625,0.0001438,53.2163,173.4278,88.2959,271.8198,2.2806e-05,7.5e-07,0.0,0 STARLINK-3846,1 52647U 22052BB  24177.25858610  .00000075  00000-0  22806-4 0  9995,2 52647  53.2163 173.4278 0001438  88.2959 271.8198 15.08841625117549,6917.875,95.437,540.735,538.746,0.0
52647.0,STARLINK-3846,PAYLOAD,2024-06-26 06:03:08,15.08843137,0.0001477,53.216,168.9664,87.0753,273.0408,8.3581e-06,-1.55e-06,0.0,0 STARLINK-3846,1 52647U 22052BB  24178.25218398 -.00000155  00000-0  83581-5 0  9997,2 52647  53.2160 168.9664 0001477  87.0753 273.0408 15.08843137117320,6917.871,95.437,540.758,538.714,0.0
52647.0,STARLINK-3846,PAYLOAD,2024-06-27 04:18:32,15.08837652,0.0001492,53.2163,164.8058,96.9055,263.2107,3.5456e-05,2.76e-06,0.0,0 STARLINK-3846,1 52647U 22052BB  24179.17954639  .00000276  00000-0  35456-4 0  9994,2 52647  53.2163 164.8058 0001492  96.9055 263.2107 15.08837652117834,6917.888,95.438,540.785,538.72,0.0
52647.0,STARLINK-3846,PAYLOAD,2024-06-27 15:26:14,15.08838458,0.0001479,53.2163,162.7241,94.0712,266.045,3.8253e-05,3.21e-06,0.0,0 STARLINK-3846,1 52647U 22052BB  24179.64322657  .00000321  00000-0  38253-4 0  9994,2 52647  53.2163 162.7241 0001479  94.0712 266.0450 15.08838458117533,6917.885,95.438,540.773,538.727,0.0
52647.0,STARLINK-3846,PAYLOAD,2024-06-28 05:44:43,15.08837583,0.000148,53.2161,160.05,97.6381,262.4779,2.209e-05,6.4e-07,0.0,0 STARLINK-3846,1 52647U 22052BB  24180.23938911  .00000064  00000-0  22090-4 0  9993,2 52647  53.2161 160.0500 0001480  97.6381 262.4779 15.08837583117995,6917.888,95.438,540.777,538.729,0.0
52647.0,STARLINK-3846,PAYLOAD,2024-06-28 15:17:01,15.08847312,0.0001553,53.2171,158.2653,97.1253,262.9916,7.8388e-05,9.6e-06,0.0,0 STARLINK-3846,1 52647U 22052BB  24180.63682118  .00000960  00000-0  78388-4 0  9998,2 52647  53.2171 158.2653 0001553  97.1253 262.9916 15.08847312118055,6917.858,95.437,540.797,538.649,0.0
